{"fetchedAt":"2026-06-29T18:07:57.194Z","satellites":[{"id":"43070","name":"IRIDIUM 135","constellationId":"iridium","omm":{"OBJECT_NAME":"IRIDIUM 135","OBJECT_ID":"2017-083A","EPOCH":"2026-06-29T10:20:23.192736","MEAN_MOTION":14.34217435,"ECCENTRICITY":0.0002081,"INCLINATION":86.3972,"RA_OF_ASC_NODE":316.8964,"ARG_OF_PERICENTER":92.9756,"MEAN_ANOMALY":267.1678,"EPHEMERIS_TYPE":0,"CLASSIFICATION_TYPE":"U","NORAD_CAT_ID":43070,"ELEMENT_SET_NO":999,"REV_AT_EPOCH":44590,"BSTAR":-0.0000088012,"MEAN_MOTION_DOT":-5e-8,"MEAN_MOTION_DDOT":0}},{"id":"43071","name":"IRIDIUM 138","constellationId":"iridium","omm":{"OBJECT_NAME":"IRIDIUM 138","OBJECT_ID":"2017-083B","EPOCH":"2026-06-29T09:16:27.189120","MEAN_MOTION":14.34217464,"ECCENTRICITY":0.0002072,"INCLINATION":86.3986,"RA_OF_ASC_NODE":316.6124,"ARG_OF_PERICENTER":87.2916,"MEAN_ANOMALY":272.8517,"EPHEMERIS_TYPE":0,"CLASSIFICATION_TYPE":"U","NORAD_CAT_ID":43071,"ELEMENT_SET_NO":999,"REV_AT_EPOCH":44588,"BSTAR":-0.0000077485,"MEAN_MOTION_DOT":-2e-8,"MEAN_MOTION_DDOT":0}},{"id":"43072","name":"IRIDIUM 116","constellationId":"iridium","omm":{"OBJECT_NAME":"IRIDIUM 116","OBJECT_ID":"2017-083C","EPOCH":"2026-06-29T10:11:15.187776","MEAN_MOTION":14.34217591,"ECCENTRICITY":0.0002221,"INCLINATION":86.3975,"RA_OF_ASC_NODE":316.8846,"ARG_OF_PERICENTER":101.3039,"MEAN_ANOMALY":258.8406,"EPHEMERIS_TYPE":0,"CLASSIFICATION_TYPE":"U","NORAD_CAT_ID":43072,"ELEMENT_SET_NO":999,"REV_AT_EPOCH":44592,"BSTAR":-0.000002166,"MEAN_MOTION_DOT":1.4e-7,"MEAN_MOTION_DDOT":0}},{"id":"43073","name":"IRIDIUM 130","constellationId":"iridium","omm":{"OBJECT_NAME":"IRIDIUM 130","OBJECT_ID":"2017-083D","EPOCH":"2026-06-29T11:06:03.061152","MEAN_MOTION":14.34217651,"ECCENTRICITY":0.0002021,"INCLINATION":86.3983,"RA_OF_ASC_NODE":317.1452,"ARG_OF_PERICENTER":97.6305,"MEAN_ANOMALY":262.512,"EPHEMERIS_TYPE":0,"CLASSIFICATION_TYPE":"U","NORAD_CAT_ID":43073,"ELEMENT_SET_NO":999,"REV_AT_EPOCH":44587,"BSTAR":0.000027086,"MEAN_MOTION_DOT":9.6e-7,"MEAN_MOTION_DDOT":0}},{"id":"43074","name":"IRIDIUM 151","constellationId":"iridium","omm":{"OBJECT_NAME":"IRIDIUM 151","OBJECT_ID":"2017-083E","EPOCH":"2026-06-29T10:29:31.182144","MEAN_MOTION":14.34217585,"ECCENTRICITY":0.0002094,"INCLINATION":86.3973,"RA_OF_ASC_NODE":316.9375,"ARG_OF_PERICENTER":94.1632,"MEAN_ANOMALY":265.9803,"EPHEMERIS_TYPE":0,"CLASSIFICATION_TYPE":"U","NORAD_CAT_ID":43074,"ELEMENT_SET_NO":999,"REV_AT_EPOCH":44589,"BSTAR":-0.00000121,"MEAN_MOTION_DOT":1.6e-7,"MEAN_MOTION_DDOT":0}},{"id":"43075","name":"IRIDIUM 134","constellationId":"iridium","omm":{"OBJECT_NAME":"IRIDIUM 134","OBJECT_ID":"2017-083F","EPOCH":"2026-06-29T11:24:19.046880","MEAN_MOTION":14.3421721,"ECCENTRICITY":0.0002167,"INCLINATION":86.3977,"RA_OF_ASC_NODE":316.9295,"ARG_OF_PERICENTER":95.1298,"MEAN_ANOMALY":265.0145,"EPHEMERIS_TYPE":0,"CLASSIFICATION_TYPE":"U","NORAD_CAT_ID":43075,"ELEMENT_SET_NO":999,"REV_AT_EPOCH":44586,"BSTAR":0.000057447,"MEAN_MOTION_DOT":0.00000181,"MEAN_MOTION_DDOT":0}},{"id":"43076","name":"IRIDIUM 137","constellationId":"iridium","omm":{"OBJECT_NAME":"IRIDIUM 137","OBJECT_ID":"2017-083G","EPOCH":"2026-06-29T10:02:07.238976","MEAN_MOTION":14.34217683,"ECCENTRICITY":0.0002536,"INCLINATION":86.3978,"RA_OF_ASC_NODE":317.0465,"ARG_OF_PERICENTER":100.4876,"MEAN_ANOMALY":259.6605,"EPHEMERIS_TYPE":0,"CLASSIFICATION_TYPE":"U","NORAD_CAT_ID":43076,"ELEMENT_SET_NO":999,"REV_AT_EPOCH":44592,"BSTAR":6.4213e-7,"MEAN_MOTION_DOT":2.2e-7,"MEAN_MOTION_DDOT":0}},{"id":"43077","name":"IRIDIUM 141","constellationId":"iridium","omm":{"OBJECT_NAME":"IRIDIUM 141","OBJECT_ID":"2017-083H","EPOCH":"2026-06-29T09:52:59.183040","MEAN_MOTION":14.34217416,"ECCENTRICITY":0.000208,"INCLINATION":86.3971,"RA_OF_ASC_NODE":316.8793,"ARG_OF_PERICENTER":91.6894,"MEAN_ANOMALY":268.454,"EPHEMERIS_TYPE":0,"CLASSIFICATION_TYPE":"U","NORAD_CAT_ID":43077,"ELEMENT_SET_NO":999,"REV_AT_EPOCH":44592,"BSTAR":-0.0000091957,"MEAN_MOTION_DOT":-6e-8,"MEAN_MOTION_DDOT":0}},{"id":"43078","name":"IRIDIUM 153","constellationId":"iridium","omm":{"OBJECT_NAME":"IRIDIUM 153","OBJECT_ID":"2017-083J","EPOCH":"2026-06-29T08:44:07.442592","MEAN_MOTION":14.34217534,"ECCENTRICITY":0.0002167,"INCLINATION":86.3967,"RA_OF_ASC_NODE":285.3799,"ARG_OF_PERICENTER":91.3162,"MEAN_ANOMALY":268.8282,"EPHEMERIS_TYPE":0,"CLASSIFICATION_TYPE":"U","NORAD_CAT_ID":43078,"ELEMENT_SET_NO":999,"REV_AT_EPOCH":44702,"BSTAR":-6.7142e-7,"MEAN_MOTION_DOT":1.8e-7,"MEAN_MOTION_DDOT":0}},{"id":"43079","name":"IRIDIUM 131","constellationId":"iridium","omm":{"OBJECT_NAME":"IRIDIUM 131","OBJECT_ID":"2017-083K","EPOCH":"2026-06-29T09:34:43.213728","MEAN_MOTION":14.342173,"ECCENTRICITY":0.0002252,"INCLINATION":86.3978,"RA_OF_ASC_NODE":317.0709,"ARG_OF_PERICENTER":94.1868,"MEAN_ANOMALY":265.9585,"EPHEMERIS_TYPE":0,"CLASSIFICATION_TYPE":"U","NORAD_CAT_ID":43079,"ELEMENT_SET_NO":999,"REV_AT_EPOCH":44585,"BSTAR":0.000078952,"MEAN_MOTION_DOT":0.00000241,"MEAN_MOTION_DDOT":0}},{"id":"43249","name":"IRIDIUM 144","constellationId":"iridium","omm":{"OBJECT_NAME":"IRIDIUM 144","OBJECT_ID":"2018-030A","EPOCH":"2026-06-29T08:53:15.296352","MEAN_MOTION":14.34216619,"ECCENTRICITY":0.0002108,"INCLINATION":86.3962,"RA_OF_ASC_NODE":285.3061,"ARG_OF_PERICENTER":98.6728,"MEAN_ANOMALY":261.4706,"EPHEMERIS_TYPE":0,"CLASSIFICATION_TYPE":"U","NORAD_CAT_ID":43249,"ELEMENT_SET_NO":999,"REV_AT_EPOCH":43188,"BSTAR":3.2737e-7,"MEAN_MOTION_DOT":2.1e-7,"MEAN_MOTION_DDOT":0}},{"id":"43250","name":"IRIDIUM 149","constellationId":"iridium","omm":{"OBJECT_NAME":"IRIDIUM 149","OBJECT_ID":"2018-030B","EPOCH":"2026-06-29T09:02:23.435232","MEAN_MOTION":14.34217721,"ECCENTRICITY":0.0002304,"INCLINATION":86.3964,"RA_OF_ASC_NODE":285.2703,"ARG_OF_PERICENTER":93.4881,"MEAN_ANOMALY":266.6578,"EPHEMERIS_TYPE":0,"CLASSIFICATION_TYPE":"U","NORAD_CAT_ID":43250,"ELEMENT_SET_NO":999,"REV_AT_EPOCH":43190,"BSTAR":0.0000020741,"MEAN_MOTION_DOT":2.6e-7,"MEAN_MOTION_DDOT":0}},{"id":"43251","name":"IRIDIUM 157","constellationId":"iridium","omm":{"OBJECT_NAME":"IRIDIUM 157","OBJECT_ID":"2018-030C","EPOCH":"2026-06-29T07:49:19.424064","MEAN_MOTION":14.34217575,"ECCENTRICITY":0.0002219,"INCLINATION":86.3963,"RA_OF_ASC_NODE":285.3445,"ARG_OF_PERICENTER":94.4398,"MEAN_ANOMALY":265.7052,"EPHEMERIS_TYPE":0,"CLASSIFICATION_TYPE":"U","NORAD_CAT_ID":43251,"ELEMENT_SET_NO":999,"REV_AT_EPOCH":43187,"BSTAR":0.000077194,"MEAN_MOTION_DOT":0.00000236,"MEAN_MOTION_DDOT":0}},{"id":"43252","name":"IRIDIUM 140","constellationId":"iridium","omm":{"OBJECT_NAME":"IRIDIUM 140","OBJECT_ID":"2018-030D","EPOCH":"2026-06-29T08:16:43.417344","MEAN_MOTION":14.3421725,"ECCENTRICITY":0.0002169,"INCLINATION":86.3965,"RA_OF_ASC_NODE":285.3494,"ARG_OF_PERICENTER":95.3168,"MEAN_ANOMALY":264.8275,"EPHEMERIS_TYPE":0,"CLASSIFICATION_TYPE":"U","NORAD_CAT_ID":43252,"ELEMENT_SET_NO":999,"REV_AT_EPOCH":43193,"BSTAR":0.0000075536,"MEAN_MOTION_DOT":4.1e-7,"MEAN_MOTION_DDOT":0}},{"id":"43253","name":"IRIDIUM 145","constellationId":"iridium","omm":{"OBJECT_NAME":"IRIDIUM 145","OBJECT_ID":"2018-030E","EPOCH":"2026-06-29T07:58:26.781024","MEAN_MOTION":14.34221683,"ECCENTRICITY":0.0002197,"INCLINATION":86.3964,"RA_OF_ASC_NODE":285.3268,"ARG_OF_PERICENTER":102.3748,"MEAN_ANOMALY":257.7694,"EPHEMERIS_TYPE":0,"CLASSIFICATION_TYPE":"U","NORAD_CAT_ID":43253,"ELEMENT_SET_NO":999,"REV_AT_EPOCH":43186,"BSTAR":0.000057248,"MEAN_MOTION_DOT":0.0000018,"MEAN_MOTION_DDOT":0}}]}