IRIDIUM 135             
1 43070U 17083A   26180.43082399 -.00000005  00000+0 -88012-5 0  9998
2 43070  86.3972 316.8964 0002081  92.9756 267.1678 14.34217435445900
IRIDIUM 138             
1 43071U 17083B   26180.38642580 -.00000002  00000+0 -77485-5 0  9996
2 43071  86.3986 316.6124 0002072  87.2916 272.8517 14.34217464445881
IRIDIUM 116             
1 43072U 17083C   26180.42448134  .00000014  00000+0 -21660-5 0  9997
2 43072  86.3975 316.8846 0002221 101.3039 258.8406 14.34217591445920
IRIDIUM 130             
1 43073U 17083D   26180.46253543  .00000096  00000+0  27086-4 0  9996
2 43073  86.3983 317.1452 0002021  97.6305 262.5120 14.34217651445874
IRIDIUM 151             
1 43074U 17083E   26180.43716646  .00000016  00000+0 -12100-5 0  9997
2 43074  86.3973 316.9375 0002094  94.1632 265.9803 14.34217585445893
IRIDIUM 134             
1 43075U 17083F   26180.47522045  .00000181  00000+0  57447-4 0  9994
2 43075  86.3977 316.9295 0002167  95.1298 265.0145 14.34217210445861
IRIDIUM 137             
1 43076U 17083G   26180.41813934  .00000022  00000+0  64213-6 0  9994
2 43076  86.3978 317.0465 0002536 100.4876 259.6605 14.34217683445927
IRIDIUM 141             
1 43077U 17083H   26180.41179610 -.00000006  00000+0 -91957-5 0  9999
2 43077  86.3971 316.8793 0002080  91.6894 268.4540 14.34217416445927
IRIDIUM 153             
1 43078U 17083J   26180.36397503  .00000018  00000+0 -67142-6 0  9999
2 43078  86.3967 285.3799 0002167  91.3162 268.8282 14.34217534447021
IRIDIUM 131             
1 43079U 17083K   26180.39911127  .00000241  00000+0  78952-4 0  9993
2 43079  86.3978 317.0709 0002252  94.1868 265.9585 14.34217300445851
IRIDIUM 144             
1 43249U 18030A   26180.37031593  .00000021  00000+0  32737-6 0  9992
2 43249  86.3962 285.3061 0002108  98.6728 261.4706 14.34216619431881
IRIDIUM 149             
1 43250U 18030B   26180.37666013  .00000026  00000+0  20741-5 0  9991
2 43250  86.3964 285.2703 0002304  93.4881 266.6578 14.34217721431900
IRIDIUM 157             
1 43251U 18030C   26180.32591926  .00000236  00000+0  77194-4 0  9993
2 43251  86.3963 285.3445 0002219  94.4398 265.7052 14.34217575431873
IRIDIUM 140             
1 43252U 18030D   26180.34494696  .00000041  00000+0  75536-5 0  9995
2 43252  86.3965 285.3494 0002169  95.3168 264.8275 14.34217250431933
IRIDIUM 145             
1 43253U 18030E   26180.33225441  .00000180  00000+0  57248-4 0  9998
2 43253  86.3964 285.3268 0002197 102.3748 257.7694 14.34221683431869
